[{"OBJECT_NAME":"STARLINK-3640","OBJECT_ID":"2022-025AJ","EPOCH":"2026-02-01T20:38:59.183808","MEAN_MOTION":15.08842221,"ECCENTRICITY":0.0001359,"INCLINATION":53.2152,"RA_OF_ASC_NODE":199.9659,"ARG_OF_PERICENTER":86.3427,"MEAN_ANOMALY":273.772,"EPHEMERIS_TYPE":0,"CLASSIFICATION_TYPE":"U","NORAD_CAT_ID":51988,"ELEMENT_SET_NO":999,"REV_AT_EPOCH":21565,"BSTAR":0.00010895584,"MEAN_MOTION_DOT":1.447e-5,"MEAN_MOTION_DDOT":0},{"OBJECT_NAME":"STARLINK-3642","OBJECT_ID":"2022-025AK","EPOCH":"2026-02-01T17:49:24.759552","MEAN_MOTION":15.08823028,"ECCENTRICITY":0.00011453,"INCLINATION":53.2176,"RA_OF_ASC_NODE":200.4946,"ARG_OF_PERICENTER":101.6738,"MEAN_ANOMALY":258.4383,"EPHEMERIS_TYPE":0,"CLASSIFICATION_TYPE":"U","NORAD_CAT_ID":51989,"ELEMENT_SET_NO":999,"REV_AT_EPOCH":21563,"BSTAR":0.00024925169,"MEAN_MOTION_DOT":3.679e-5,"MEAN_MOTION_DDOT":0},{"OBJECT_NAME":"STARLINK-3657","OBJECT_ID":"2022-025AL","EPOCH":"2026-02-01T17:04:22.266048","MEAN_MOTION":15.08836505,"ECCENTRICITY":0.00012548,"INCLINATION":53.2164,"RA_OF_ASC_NODE":180.6348,"ARG_OF_PERICENTER":90.1626,"MEAN_ANOMALY":269.951,"EPHEMERIS_TYPE":0,"CLASSIFICATION_TYPE":"U","NORAD_CAT_ID":51990,"ELEMENT_SET_NO":999,"REV_AT_EPOCH":21590,"BSTAR":5.7830107e-5,"MEAN_MOTION_DOT":6.33e-6,"MEAN_MOTION_DDOT":0},{"OBJECT_NAME":"STARLINK-3652","OBJECT_ID":"2022-025AM","EPOCH":"2026-02-01T17:38:49.463808","MEAN_MOTION":15.08843699,"ECCENTRICITY":0.00011377,"INCLINATION":53.2166,"RA_OF_ASC_NODE":200.5257,"ARG_OF_PERICENTER":79.7636,"MEAN_ANOMALY":280.3484,"EPHEMERIS_TYPE":0,"CLASSIFICATION_TYPE":"U","NORAD_CAT_ID":51991,"ELEMENT_SET_NO":999,"REV_AT_EPOCH":21563,"BSTAR":0.00010075004,"MEAN_MOTION_DOT":1.316e-5,"MEAN_MOTION_DDOT":0},{"OBJECT_NAME":"STARLINK-3643","OBJECT_ID":"2022-025AN","EPOCH":"2026-02-01T16:48:28.168992","MEAN_MOTION":15.08838616,"ECCENTRICITY":0.00012591,"INCLINATION":53.2165,"RA_OF_ASC_NODE":180.6854,"ARG_OF_PERICENTER":87.3692,"MEAN_ANOMALY":272.7445,"EPHEMERIS_TYPE":0,"CLASSIFICATION_TYPE":"U","NORAD_CAT_ID":51992,"ELEMENT_SET_NO":999,"REV_AT_EPOCH":21547,"BSTAR":5.4185863e-5,"MEAN_MOTION_DOT":5.75e-6,"MEAN_MOTION_DDOT":0},{"OBJECT_NAME":"STARLINK-3648","OBJECT_ID":"2022-025AP","EPOCH":"2026-02-01T20:33:40.947552","MEAN_MOTION":15.0884326,"ECCENTRICITY":0.00013809,"INCLINATION":53.2167,"RA_OF_ASC_NODE":199.9807,"ARG_OF_PERICENTER":81.434,"MEAN_ANOMALY":278.6808,"EPHEMERIS_TYPE":0,"CLASSIFICATION_TYPE":"U","NORAD_CAT_ID":51993,"ELEMENT_SET_NO":999,"REV_AT_EPOCH":21565,"BSTAR":5.8484022e-5,"MEAN_MOTION_DOT":6.43e-6,"MEAN_MOTION_DDOT":0},{"OBJECT_NAME":"STARLINK-3647","OBJECT_ID":"2022-025AQ","EPOCH":"2026-02-01T19:53:58.585056","MEAN_MOTION":15.08820233,"ECCENTRICITY":0.00012919,"INCLINATION":53.2173,"RA_OF_ASC_NODE":180.106,"ARG_OF_PERICENTER":90.3339,"MEAN_ANOMALY":269.7801,"EPHEMERIS_TYPE":0,"CLASSIFICATION_TYPE":"U","NORAD_CAT_ID":51994,"ELEMENT_SET_NO":999,"REV_AT_EPOCH":21550,"BSTAR":-7.4121326e-5,"MEAN_MOTION_DOT":-1.467e-5,"MEAN_MOTION_DDOT":0},{"OBJECT_NAME":"STARLINK-3636","OBJECT_ID":"2022-025AR","EPOCH":"2026-02-01T16:59:02.637888","MEAN_MOTION":15.08865659,"ECCENTRICITY":0.00012628,"INCLINATION":53.2175,"RA_OF_ASC_NODE":180.6488,"ARG_OF_PERICENTER":83.8663,"MEAN_ANOMALY":276.2474,"EPHEMERIS_TYPE":0,"CLASSIFICATION_TYPE":"U","NORAD_CAT_ID":51995,"ELEMENT_SET_NO":999,"REV_AT_EPOCH":21547,"BSTAR":0.00031778376,"MEAN_MOTION_DOT":4.777e-5,"MEAN_MOTION_DDOT":0},{"OBJECT_NAME":"STARLINK-3538","OBJECT_ID":"2022-025AS","EPOCH":"2026-02-01T19:48:38.655360","MEAN_MOTION":15.08835371,"ECCENTRICITY":9.033e-5,"INCLINATION":53.2168,"RA_OF_ASC_NODE":180.1207,"ARG_OF_PERICENTER":83.0364,"MEAN_ANOMALY":277.0731,"EPHEMERIS_TYPE":0,"CLASSIFICATION_TYPE":"U","NORAD_CAT_ID":51996,"ELEMENT_SET_NO":999,"REV_AT_EPOCH":21550,"BSTAR":4.551504e-5,"MEAN_MOTION_DOT":4.37e-6,"MEAN_MOTION_DDOT":0},{"OBJECT_NAME":"STARLINK-3589","OBJECT_ID":"2022-025AT","EPOCH":"2026-02-01T16:53:46.214304","MEAN_MOTION":15.0883788,"ECCENTRICITY":0.00012323,"INCLINATION":53.217,"RA_OF_ASC_NODE":180.6696,"ARG_OF_PERICENTER":87.4233,"MEAN_ANOMALY":272.69,"EPHEMERIS_TYPE":0,"CLASSIFICATION_TYPE":"U","NORAD_CAT_ID":51997,"ELEMENT_SET_NO":999,"REV_AT_EPOCH":21547,"BSTAR":8.5042446e-5,"MEAN_MOTION_DOT":1.066e-5,"MEAN_MOTION_DDOT":0},{"OBJECT_NAME":"STARLINK-3618","OBJECT_ID":"2022-025AU","EPOCH":"2026-02-01T17:30:52.619616","MEAN_MOTION":15.08836645,"ECCENTRICITY":0.00011302,"INCLINATION":53.2155,"RA_OF_ASC_NODE":180.5493,"ARG_OF_PERICENTER":89.3996,"MEAN_ANOMALY":270.7126,"EPHEMERIS_TYPE":0,"CLASSIFICATION_TYPE":"U","NORAD_CAT_ID":51998,"ELEMENT_SET_NO":999,"REV_AT_EPOCH":21549,"BSTAR":0.00021180339,"MEAN_MOTION_DOT":3.084e-5,"MEAN_MOTION_DDOT":0},{"OBJECT_NAME":"STARLINK-3653","OBJECT_ID":"2022-025AW","EPOCH":"2026-02-01T21:55:49.654560","MEAN_MOTION":15.0882861,"ECCENTRICITY":0.00011181,"INCLINATION":53.2149,"RA_OF_ASC_NODE":179.6373,"ARG_OF_PERICENTER":87.4625,"MEAN_ANOMALY":272.6495,"EPHEMERIS_TYPE":0,"CLASSIFICATION_TYPE":"U","NORAD_CAT_ID":52000,"ELEMENT_SET_NO":999,"REV_AT_EPOCH":21552,"BSTAR":0.00026415999,"MEAN_MOTION_DOT":3.917e-5,"MEAN_MOTION_DDOT":0},{"OBJECT_NAME":"STARLINK-3659","OBJECT_ID":"2022-025AX","EPOCH":"2026-02-01T19:02:19.811904","MEAN_MOTION":15.08842269,"ECCENTRICITY":0.00013582,"INCLINATION":53.2161,"RA_OF_ASC_NODE":180.2741,"ARG_OF_PERICENTER":105.9836,"MEAN_ANOMALY":254.1305,"EPHEMERIS_TYPE":0,"CLASSIFICATION_TYPE":"U","NORAD_CAT_ID":52001,"ELEMENT_SET_NO":999,"REV_AT_EPOCH":21550,"BSTAR":3.0796357e-5,"MEAN_MOTION_DOT":2.02e-6,"MEAN_MOTION_DDOT":0},{"OBJECT_NAME":"STARLINK-3668","OBJECT_ID":"2022-025AY","EPOCH":"2026-02-01T19:00:57.223872","MEAN_MOTION":15.08842279,"ECCENTRICITY":9.089e-5,"INCLINATION":53.2171,"RA_OF_ASC_NODE":180.308,"ARG_OF_PERICENTER":83.3431,"MEAN_ANOMALY":276.7664,"EPHEMERIS_TYPE":0,"CLASSIFICATION_TYPE":"U","NORAD_CAT_ID":52002,"ELEMENT_SET_NO":999,"REV_AT_EPOCH":21550,"BSTAR":0.00012019295,"MEAN_MOTION_DOT":1.626e-5,"MEAN_MOTION_DDOT":0},{"OBJECT_NAME":"STARLINK-3712","OBJECT_ID":"2022-029C","EPOCH":"2026-02-01T21:51:52.007904","MEAN_MOTION":15.08825288,"ECCENTRICITY":0.00018383,"INCLINATION":53.2184,"RA_OF_ASC_NODE":249.7373,"ARG_OF_PERICENTER":85.3501,"MEAN_ANOMALY":274.7701,"EPHEMERIS_TYPE":0,"CLASSIFICATION_TYPE":"U","NORAD_CAT_ID":52090,"ELEMENT_SET_NO":999,"REV_AT_EPOCH":21525,"BSTAR":2.4953346e-5,"MEAN_MOTION_DOT":1.09e-6,"MEAN_MOTION_DDOT":0},{"OBJECT_NAME":"STARLINK-3716","OBJECT_ID":"2022-029E","EPOCH":"2026-02-01T21:57:09.441504","MEAN_MOTION":15.08837216,"ECCENTRICITY":0.00014252,"INCLINATION":53.2161,"RA_OF_ASC_NODE":249.722,"ARG_OF_PERICENTER":86.9523,"MEAN_ANOMALY":273.1633,"EPHEMERIS_TYPE":0,"CLASSIFICATION_TYPE":"U","NORAD_CAT_ID":52092,"ELEMENT_SET_NO":999,"REV_AT_EPOCH":21525,"BSTAR":3.9927465e-5,"MEAN_MOTION_DOT":3.48e-6,"MEAN_MOTION_DDOT":0}]
