STARLINK-3640           
1 51988U 22025AJ  26032.86040722  .00001447  00000+0  10896-3 0  9996
2 51988  53.2152 199.9659 0001359  86.3427 273.7720 15.08842221215657
STARLINK-3642           
1 51989U 22025AK  26032.74264768  .00003679  00000+0  24925-3 0  9999
2 51989  53.2176 200.4946 0001145 101.6738 258.4383 15.08823028215637
STARLINK-3657           
1 51990U 22025AL  26032.71136882  .00000633  00000+0  57830-4 0  9992
2 51990  53.2164 180.6348 0001254  90.1626 269.9510 15.08836505215903
STARLINK-3652           
1 51991U 22025AM  26032.73529472  .00001316  00000+0  10075-3 0  9994
2 51991  53.2166 200.5257 0001137  79.7636 280.3484 15.08843699215630
STARLINK-3643           
1 51992U 22025AN  26032.70032603  .00000575  00000+0  54186-4 0  9995
2 51992  53.2165 180.6854 0001259  87.3692 272.7445 15.08838616215470
STARLINK-3648           
1 51993U 22025AP  26032.85672393  .00000643  00000+0  58484-4 0  9999
2 51993  53.2167 199.9807 0001380  81.4340 278.6808 15.08843260215653
STARLINK-3647           
1 51994U 22025AQ  26032.82915029 -.00001467  00000+0 -74121-4 0  9996
2 51994  53.2173 180.1060 0001291  90.3339 269.7801 15.08820233215505
STARLINK-3636           
1 51995U 22025AR  26032.70766942  .00004777  00000+0  31778-3 0  9997
2 51995  53.2175 180.6488 0001262  83.8663 276.2474 15.08865659215478
STARLINK-3538           
1 51996U 22025AS  26032.82544740  .00000437  00000+0  45515-4 0  9995
2 51996  53.2168 180.1207 0000903  83.0364 277.0731 15.08835371215503
STARLINK-3589           
1 51997U 22025AT  26032.70400711  .00001066  00000+0  85042-4 0  9990
2 51997  53.2170 180.6696 0001232  87.4233 272.6900 15.08837880215475
STARLINK-3618           
1 51998U 22025AU  26032.72977569  .00003084  00000+0  21180-3 0  9997
2 51998  53.2155 180.5493 0001130  89.3996 270.7126 15.08836645215496
STARLINK-3653           
1 52000U 22025AW  26032.91376915  .00003917  00000+0  26416-3 0  9993
2 52000  53.2149 179.6373 0001118  87.4625 272.6495 15.08828610215521
STARLINK-3659           
1 52001U 22025AX  26032.79328486  .00000202  00000+0  30796-4 0  9991
2 52001  53.2161 180.2741 0001358 105.9836 254.1305 15.08842269215508
STARLINK-3668           
1 52002U 22025AY  26032.79232898  .00001626  00000+0  12019-3 0  9991
2 52002  53.2171 180.3080 0000908  83.3431 276.7664 15.08842279215506
STARLINK-3712           
1 52090U 22029C   26032.91101861  .00000109  00000+0  24953-4 0  9997
2 52090  53.2184 249.7373 0001838  85.3501 274.7701 15.08825288215258
STARLINK-3716           
1 52092U 22029E   26032.91469261  .00000348  00000+0  39927-4 0  9992
2 52092  53.2161 249.7220 0001425  86.9523 273.1633 15.08837216215250
